[{"OBJECT_NAME":"STARLINK-1640","OBJECT_ID":"2020-057BJ","EPOCH":"2025-07-29T09:02:22.429536","MEAN_MOTION":15.06397487,"ECCENTRICITY":0.0001094,"INCLINATION":53.0542,"RA_OF_ASC_NODE":239.1123,"ARG_OF_PERICENTER":85.9049,"MEAN_ANOMALY":274.2065,"EPHEMERIS_TYPE":0,"CLASSIFICATION_TYPE":"U","NORAD_CAT_ID":46173,"ELEMENT_SET_NO":999,"REV_AT_EPOCH":27306,"BSTAR":2.9402e-5,"MEAN_MOTION_DOT":1.57e-6,"MEAN_MOTION_DDOT":0},{"OBJECT_NAME":"STARLINK-1641","OBJECT_ID":"2020-057BK","EPOCH":"2025-07-28T18:53:08.879712","MEAN_MOTION":15.06395011,"ECCENTRICITY":0.0001363,"INCLINATION":53.0547,"RA_OF_ASC_NODE":241.7583,"ARG_OF_PERICENTER":90.2633,"MEAN_ANOMALY":269.8512,"EPHEMERIS_TYPE":0,"CLASSIFICATION_TYPE":"U","NORAD_CAT_ID":46174,"ELEMENT_SET_NO":999,"REV_AT_EPOCH":27297,"BSTAR":9.9102e-5,"MEAN_MOTION_DOT":1.195e-5,"MEAN_MOTION_DDOT":0},{"OBJECT_NAME":"STARLINK-1734","OBJECT_ID":"2020-062A","EPOCH":"2025-07-28T13:37:07.281696","MEAN_MOTION":15.3869896,"ECCENTRICITY":8.29e-5,"INCLINATION":53.0316,"RA_OF_ASC_NODE":234.0551,"ARG_OF_PERICENTER":206.05,"MEAN_ANOMALY":154.0461,"EPHEMERIS_TYPE":0,"CLASSIFICATION_TYPE":"U","NORAD_CAT_ID":46325,"ELEMENT_SET_NO":999,"REV_AT_EPOCH":27210,"BSTAR":0.0017717,"MEAN_MOTION_DOT":0.00068995,"MEAN_MOTION_DDOT":0},{"OBJECT_NAME":"STARLINK-1654","OBJECT_ID":"2020-062B","EPOCH":"2025-07-29T12:37:23.711232","MEAN_MOTION":15.06407274,"ECCENTRICITY":0.0001286,"INCLINATION":53.0546,"RA_OF_ASC_NODE":298.6806,"ARG_OF_PERICENTER":94.0199,"MEAN_ANOMALY":266.0937,"EPHEMERIS_TYPE":0,"CLASSIFICATION_TYPE":"U","NORAD_CAT_ID":46326,"ELEMENT_SET_NO":999,"REV_AT_EPOCH":27085,"BSTAR":7.6952e-5,"MEAN_MOTION_DOT":8.65e-6,"MEAN_MOTION_DDOT":0},{"OBJECT_NAME":"STARLINK-1686","OBJECT_ID":"2020-062D","EPOCH":"2025-07-28T11:11:21.692256","MEAN_MOTION":15.06398847,"ECCENTRICITY":0.0001216,"INCLINATION":53.053,"RA_OF_ASC_NODE":283.1948,"ARG_OF_PERICENTER":105.2779,"MEAN_ANOMALY":254.8344,"EPHEMERIS_TYPE":0,"CLASSIFICATION_TYPE":"U","NORAD_CAT_ID":46328,"ELEMENT_SET_NO":999,"REV_AT_EPOCH":27079,"BSTAR":8.0423e-5,"MEAN_MOTION_DOT":9.17e-6,"MEAN_MOTION_DDOT":0},{"OBJECT_NAME":"STARLINK-1695","OBJECT_ID":"2020-062E","EPOCH":"2025-07-29T11:52:14.117376","MEAN_MOTION":15.06395504,"ECCENTRICITY":0.0001172,"INCLINATION":53.0559,"RA_OF_ASC_NODE":278.5819,"ARG_OF_PERICENTER":88.2821,"MEAN_ANOMALY":271.8302,"EPHEMERIS_TYPE":0,"CLASSIFICATION_TYPE":"U","NORAD_CAT_ID":46329,"ELEMENT_SET_NO":999,"REV_AT_EPOCH":27112,"BSTAR":5.7607e-5,"MEAN_MOTION_DOT":5.77e-6,"MEAN_MOTION_DDOT":0},{"OBJECT_NAME":"STARLINK-1710","OBJECT_ID":"2020-062F","EPOCH":"2025-07-29T05:05:18.556512","MEAN_MOTION":15.26567592,"ECCENTRICITY":0.0003427,"INCLINATION":53.0509,"RA_OF_ASC_NODE":276.2901,"ARG_OF_PERICENTER":338.198,"MEAN_ANOMALY":21.8871,"EPHEMERIS_TYPE":0,"CLASSIFICATION_TYPE":"U","NORAD_CAT_ID":46330,"ELEMENT_SET_NO":999,"REV_AT_EPOCH":27096,"BSTAR":0.002203,"MEAN_MOTION_DOT":0.00058511,"MEAN_MOTION_DDOT":0},{"OBJECT_NAME":"STARLINK-1719","OBJECT_ID":"2020-062G","EPOCH":"2025-07-29T12:26:43.857024","MEAN_MOTION":15.06398544,"ECCENTRICITY":0.0001448,"INCLINATION":53.0553,"RA_OF_ASC_NODE":298.472,"ARG_OF_PERICENTER":101.2642,"MEAN_ANOMALY":258.851,"EPHEMERIS_TYPE":0,"CLASSIFICATION_TYPE":"U","NORAD_CAT_ID":46331,"ELEMENT_SET_NO":999,"REV_AT_EPOCH":27085,"BSTAR":8.194e-5,"MEAN_MOTION_DOT":9.39e-6,"MEAN_MOTION_DDOT":0},{"OBJECT_NAME":"STARLINK-1723","OBJECT_ID":"2020-062J","EPOCH":"2025-07-28T13:10:47.694432","MEAN_MOTION":15.06394947,"ECCENTRICITY":0.0001248,"INCLINATION":53.0556,"RA_OF_ASC_NODE":302.8269,"ARG_OF_PERICENTER":82.0523,"MEAN_ANOMALY":278.0608,"EPHEMERIS_TYPE":0,"CLASSIFICATION_TYPE":"U","NORAD_CAT_ID":46333,"ELEMENT_SET_NO":999,"REV_AT_EPOCH":27052,"BSTAR":-9.6841e-5,"MEAN_MOTION_DOT":-1.723e-5,"MEAN_MOTION_DDOT":0},{"OBJECT_NAME":"STARLINK-1727","OBJECT_ID":"2020-062L","EPOCH":"2025-07-29T12:10:49.243296","MEAN_MOTION":15.06400605,"ECCENTRICITY":0.0001404,"INCLINATION":53.0545,"RA_OF_ASC_NODE":298.5222,"ARG_OF_PERICENTER":85.6054,"MEAN_ANOMALY":274.5095,"EPHEMERIS_TYPE":0,"CLASSIFICATION_TYPE":"U","NORAD_CAT_ID":46335,"ELEMENT_SET_NO":999,"REV_AT_EPOCH":27085,"BSTAR":0.00019577,"MEAN_MOTION_DOT":2.636e-5,"MEAN_MOTION_DDOT":0},{"OBJECT_NAME":"STARLINK-1738","OBJECT_ID":"2020-062M","EPOCH":"2025-07-29T06:00:02.000160","MEAN_MOTION":15.30031746,"ECCENTRICITY":8.6e-5,"INCLINATION":53.0552,"RA_OF_ASC_NODE":278.4381,"ARG_OF_PERICENTER":88.3754,"MEAN_ANOMALY":285.4008,"EPHEMERIS_TYPE":0,"CLASSIFICATION_TYPE":"U","NORAD_CAT_ID":46336,"ELEMENT_SET_NO":999,"REV_AT_EPOCH":27111,"BSTAR":0.00020614,"MEAN_MOTION_DOT":5.72e-5,"MEAN_MOTION_DDOT":0},{"OBJECT_NAME":"STARLINK-1750","OBJECT_ID":"2020-062N","EPOCH":"2025-07-28T12:25:39.508032","MEAN_MOTION":15.06410328,"ECCENTRICITY":0.0001087,"INCLINATION":53.0538,"RA_OF_ASC_NODE":282.9699,"ARG_OF_PERICENTER":89.7589,"MEAN_ANOMALY":270.3524,"EPHEMERIS_TYPE":0,"CLASSIFICATION_TYPE":"U","NORAD_CAT_ID":46337,"ELEMENT_SET_NO":999,"REV_AT_EPOCH":27080,"BSTAR":0.00027908,"MEAN_MOTION_DOT":3.879e-5,"MEAN_MOTION_DDOT":0},{"OBJECT_NAME":"STARLINK-1752","OBJECT_ID":"2020-062P","EPOCH":"2025-07-29T11:54:53.172000","MEAN_MOTION":15.06390622,"ECCENTRICITY":0.0001334,"INCLINATION":53.0551,"RA_OF_ASC_NODE":298.5761,"ARG_OF_PERICENTER":87.3482,"MEAN_ANOMALY":272.766,"EPHEMERIS_TYPE":0,"CLASSIFICATION_TYPE":"U","NORAD_CAT_ID":46338,"ELEMENT_SET_NO":999,"REV_AT_EPOCH":27084,"BSTAR":1.3218e-5,"MEAN_MOTION_DOT":-8.5e-7,"MEAN_MOTION_DDOT":0},{"OBJECT_NAME":"STARLINK-1759","OBJECT_ID":"2020-062R","EPOCH":"2025-07-29T12:10:08.361408","MEAN_MOTION":15.16954835,"ECCENTRICITY":0.0002865,"INCLINATION":53.0529,"RA_OF_ASC_NODE":296.8262,"ARG_OF_PERICENTER":324.5801,"MEAN_ANOMALY":35.5002,"EPHEMERIS_TYPE":0,"CLASSIFICATION_TYPE":"U","NORAD_CAT_ID":46340,"ELEMENT_SET_NO":999,"REV_AT_EPOCH":27087,"BSTAR":0.0015485,"MEAN_MOTION_DOT":0.00030751,"MEAN_MOTION_DDOT":0},{"OBJECT_NAME":"STARLINK-1762","OBJECT_ID":"2020-062T","EPOCH":"2025-07-29T12:32:02.234976","MEAN_MOTION":15.06397443,"ECCENTRICITY":0.0001343,"INCLINATION":53.0551,"RA_OF_ASC_NODE":298.4559,"ARG_OF_PERICENTER":96.7328,"MEAN_ANOMALY":263.3813,"EPHEMERIS_TYPE":0,"CLASSIFICATION_TYPE":"U","NORAD_CAT_ID":46342,"ELEMENT_SET_NO":999,"REV_AT_EPOCH":27085,"BSTAR":4.7057e-5,"MEAN_MOTION_DOT":4.2e-6,"MEAN_MOTION_DDOT":0},{"OBJECT_NAME":"STARLINK-1764","OBJECT_ID":"2020-062U","EPOCH":"2025-07-29T04:26:22.781760","MEAN_MOTION":15.06401229,"ECCENTRICITY":0.0001361,"INCLINATION":53.0536,"RA_OF_ASC_NODE":279.9709,"ARG_OF_PERICENTER":92.5788,"MEAN_ANOMALY":267.5357,"EPHEMERIS_TYPE":0,"CLASSIFICATION_TYPE":"U","NORAD_CAT_ID":46343,"ELEMENT_SET_NO":999,"REV_AT_EPOCH":27108,"BSTAR":7.5118e-5,"MEAN_MOTION_DOT":8.38e-6,"MEAN_MOTION_DDOT":0},{"OBJECT_NAME":"STARLINK-1765","OBJECT_ID":"2020-062V","EPOCH":"2025-07-29T04:52:54.994656","MEAN_MOTION":15.06403288,"ECCENTRICITY":0.0001485,"INCLINATION":53.0555,"RA_OF_ASC_NODE":279.8873,"ARG_OF_PERICENTER":99.3422,"MEAN_ANOMALY":260.7735,"EPHEMERIS_TYPE":0,"CLASSIFICATION_TYPE":"U","NORAD_CAT_ID":46344,"ELEMENT_SET_NO":999,"REV_AT_EPOCH":27106,"BSTAR":7.9732e-5,"MEAN_MOTION_DOT":9.06e-6,"MEAN_MOTION_DDOT":0}]
