STARLINK-1640           
1 46173U 20057BJ  25210.37664849  .00000157  00000+0  29402-4 0  9995
2 46173  53.0542 239.1123 0001094  85.9049 274.2065 15.06397487273066
STARLINK-1641           
1 46174U 20057BK  25209.78690833  .00001195  00000+0  99102-4 0  9998
2 46174  53.0547 241.7583 0001363  90.2633 269.8512 15.06395011272975
STARLINK-1734           
1 46325U 20062A   25209.56744539  .00068995  00000+0  17717-2 0  9992
2 46325  53.0316 234.0551 0000829 206.0500 154.0461 15.38698960272100
STARLINK-1654           
1 46326U 20062B   25210.52596888  .00000865  00000+0  76952-4 0  9993
2 46326  53.0546 298.6806 0001286  94.0199 266.0937 15.06407274270855
STARLINK-1686           
1 46328U 20062D   25209.46622329  .00000917  00000+0  80423-4 0  9992
2 46328  53.0530 283.1948 0001216 105.2779 254.8344 15.06398847270793
STARLINK-1695           
1 46329U 20062E   25210.49460784  .00000577  00000+0  57607-4 0  9993
2 46329  53.0559 278.5819 0001172  88.2821 271.8302 15.06395504271127
STARLINK-1710           
1 46330U 20062F   25210.21202033  .00058511  00000+0  22030-2 0  9997
2 46330  53.0509 276.2901 0003427 338.1980  21.8871 15.26567592270964
STARLINK-1719           
1 46331U 20062G   25210.51856316  .00000939  00000+0  81940-4 0  9998
2 46331  53.0553 298.4720 0001448 101.2642 258.8510 15.06398544270851
STARLINK-1723           
1 46333U 20062J   25209.54916313 -.00001723  00000+0 -96841-4 0  9995
2 46333  53.0556 302.8269 0001248  82.0523 278.0608 15.06394947270525
STARLINK-1727           
1 46335U 20062L   25210.50751439  .00002636  00000+0  19577-3 0  9993
2 46335  53.0545 298.5222 0001404  85.6054 274.5095 15.06400605270853
STARLINK-1738           
1 46336U 20062M   25210.25002315  .00005720  00000+0  20614-3 0  9999
2 46336  53.0552 278.4381 0000860  88.3754 285.4008 15.30031746271115
STARLINK-1750           
1 46337U 20062N   25209.51781838  .00003879  00000+0  27908-3 0  9997
2 46337  53.0538 282.9699 0001087  89.7589 270.3524 15.06410328270806
STARLINK-1752           
1 46338U 20062P   25210.49644875 -.00000085  00000+0  13218-4 0  9993
2 46338  53.0551 298.5761 0001334  87.3482 272.7660 15.06390622270841
STARLINK-1759           
1 46340U 20062R   25210.50704122  .00030751  00000+0  15485-2 0  9998
2 46340  53.0529 296.8262 0002865 324.5801  35.5002 15.16954835270878
STARLINK-1762           
1 46342U 20062T   25210.52224809  .00000420  00000+0  47057-4 0  9993
2 46342  53.0551 298.4559 0001343  96.7328 263.3813 15.06397443270858
STARLINK-1764           
1 46343U 20062U   25210.18498590  .00000838  00000+0  75118-4 0  9998
2 46343  53.0536 279.9709 0001361  92.5788 267.5357 15.06401229271080
STARLINK-1765           
1 46344U 20062V   25210.20341429  .00000906  00000+0  79732-4 0  9992
2 46344  53.0555 279.8873 0001485  99.3422 260.7735 15.06403288271060
